EUTELSAT 8 WEST B       
1 40875U 15039B   25281.77648221 -.00000064  00000+0  00000+0 0  9996
2 40875   0.0690 352.3910 0003750 206.8132  89.9948  1.00271259 37139
EUTELSAT 9B             
1 41310U 16005A   25281.77977557  .00000063  00000+0  00000+0 0  9990
2 41310   0.0626  63.8895 0003516 166.1186  77.3715  1.00271374 35595
EUTELSAT 65 WEST A      
1 41382U 16014A   25281.76512883 -.00000275  00000+0  00000+0 0  9991
2 41382   0.0743  40.2867 0002289 159.4805  28.1415  1.00273096 35012
EUTELSAT 117 WEST B     
1 41589U 16038B   25281.66263572 -.00000010  00000+0  00000+0 0  9990
2 41589   0.0255  49.2242 0000247  37.4289  52.4552  1.00272340 34144
EUTELSAT 172B           
1 42741U 17029B   25281.74077538 -.00000004  00000+0  00000+0 0  9999
2 42741   0.0173 172.2563 0000089  24.6058 259.4499  1.00271133 31205
EUTELSAT 7C             
1 44334U 19034B   25279.06780303  .00000051  00000+0  00000+0 0  9991
2 44334   0.0646 184.5377 0003490 353.0320 228.8468  1.00272812  4288
EUTELSAT 5 WEST B       
1 44624U 19067A   25279.92180882 -.00000039  00000+0  00000+0 0  9997
2 44624   0.0665   8.1967 0003283 192.1601 142.3413  1.00271877 21897
EUTELSAT KONNECT        
1 45027U 20005B   25278.99647605  .00000052  00000+0  00000+0 0  9990
2 45027   0.0650  96.4005 0001767  95.5385 188.9228  1.00275330 21777
